IRIDIUM 8 [+]           
1 24792U 97020A   16263.88364664 -.00000024  00000-0 -15564-4 0  9998
2 24792  86.3923  71.6947 0001926  86.7126 273.4290 14.34214554 14228
IRIDIUM 7 [+]           
1 24793U 97020B   16263.94707292 -.00000063  00000-0 -29736-4 0  9993
2 24793  86.3927  71.9361 0001983  86.6097 273.5326 14.34214168 14238
IRIDIUM 6 [+]           
1 24794U 97020C   16263.94061287 -.00000083  00000-0 -36764-4 0  9992
2 24794  86.3926  71.8757 0002025  87.8125 272.3303 14.34213985 14226
IRIDIUM 5 [+]           
1 24795U 97020D   16263.93445298 -.00000090  00000-0 -39149-4 0  9998
2 24795  86.3908  71.8993 0002136  84.5995 275.5444 14.34211007 14506
IRIDIUM 4 [-]           
1 24796U 97020E   16263.91167978  .00000130  00000-0  38624-4 0  9993
2 24796  86.3922  71.0175 0002039  90.7797  62.7097 14.35103315 14501
IRIDIUM 914 [-]         
1 24836U 97030A   16263.92326027  .00000153  00000-0  43517-4 0  9994
2 24836  86.3895  88.5047 0000568  66.8514 293.2744 14.38705220147987
IRIDIUM 12 [+]          
1 24837U 97030B   16263.97248281 -.00000021  00000-0 -14713-4 0  9997
2 24837  86.3924 103.0797 0001998  81.3187  32.3104 14.34217913  7937
IRIDIUM 10 [+]          
1 24839U 97030D   16263.96464505 -.00000035  00000-0 -19456-4 0  9991
2 24839  86.3923 103.0642 0001958  81.9978  56.8011 14.34216576  8200
IRIDIUM 13 [+]          
1 24840U 97030E   16263.60792696 -.00000025  00000-0 -15981-4 0  9997
2 24840  86.3926 103.3479 0002035  77.0679 283.0744 14.34217918  8160
IRIDIUM 16 [-]          
1 24841U 97030F   16263.54594511  .00000135  00000-0  39153-4 0  9994
2 24841  86.4001 103.3858 0004387  89.6771 270.4928 14.36656037  8728
IRIDIUM 911 [-]         
1 24842U 97030G   16263.88855057  .00000165  00000-0  41598-4 0  9996
2 24842  86.4428 104.1870 0012362 268.8616  91.1169 14.44888890 13922
IRIDIUM 15 [+]          
1 24869U 97034A   16263.64941356  .00000163  00000-0  51307-4 0  9998
2 24869  86.3967 135.2309 0002260  88.7951 271.3504 14.34221050  4863
IRIDIUM 17 [-]          
1 24870U 97034B   16263.68340286  .00000163  00000-0  49534-4 0  9998
2 24870  86.3972 133.5501 0003337  58.5070 301.6452 14.35701851  5367
IRIDIUM 920 [-]         
1 24871U 97034C   16263.61138438  .00000129  00000-0  34880-4 0  9996
2 24871  86.3960 120.4168 0012822 142.3866 217.8232 14.39423053  7425
IRIDIUM 18 [+]          
1 24872U 97034D   16263.63038541  .00000156  00000-0  48490-4 0  9995
2 24872  86.3976 135.1936 0002210  85.2665 274.8783 14.34220736  5094
IRIDIUM 921 [-]         
1 24873U 97034E   16263.92089808  .00001467  00000-0  86400-4 0  9999
2 24873  86.3986 193.6365 0005617 305.8996  54.1720 15.10755912 47004
IRIDIUM 26 [-]          
1 24903U 97043A   16263.80986331  .00000132  00000-0  39273-4 0  9991
2 24903  86.4012   8.0035 0002336  95.1645  16.5686 14.35210427998929
IRIDIUM 25 [+]          
1 24904U 97043B   16264.34617094  .00000253  00000-0  83305-4 0  9998
2 24904  86.4005   8.2489 0002307  98.0317 262.1140 14.34223642999144
IRIDIUM 46 [+]          
1 24905U 97043C   16263.80066946  .00000209  00000-0  67592-4 0  9994
2 24905  86.4013   9.0058 0002211  98.7926 261.3520 14.34224005999060
IRIDIUM 23 [+]          
1 24906U 97043D   16263.81599314  .00000202  00000-0  65054-4 0  9990
2 24906  86.4019   8.4773 0002201 101.0120  10.8383 14.34224265998888
IRIDIUM 22 [+]          
1 24907U 97043E   16264.39687143  .00000236  00000-0  77237-4 0  9996
2 24907  86.4014   8.8647 0002212  97.7426 262.4021 14.34224296999159
DUMMY MASS 1 [-]        
1 24925U 97048A   16263.78907423  .00000126  00000-0  11473-4 0  9997
2 24925  86.3407 168.0829 0004663 283.4996  76.5708 14.85096257 31459
DUMMY MASS 2 [-]        
1 24926U 97048B   16263.78538938  .00000124  00000-0  11354-4 0  9995
2 24926  86.3408 169.1546 0005587 293.3797  66.6839 14.84864742 31304
IRIDIUM 29 [-]          
1 24944U 97051A   16263.90354413  .00000118  00000-0  34788-4 0  9996
2 24944  86.3970  39.9339 0001839  88.8056 271.3350 14.34599177995464
IRIDIUM 32 [+]          
1 24945U 97051B   16263.93735019  .00000144  00000-0  44192-4 0  9994
2 24945  86.3969  40.0787 0002056  96.7043 263.4387 14.34212346995685
IRIDIUM 33 [-]          
1 24946U 97051C   16263.91092044  .00000106  00000-0  31249-4 0  9994
2 24946  86.3885  39.8569 0009478  53.8557 306.3514 14.33510527995293
IRIDIUM 28 [-]          
1 24948U 97051E   16263.88185879  .00000134  00000-0  39648-4 0  9993
2 24948  86.3976  39.3295 0002505  91.7522 268.3961 14.35502418995750
IRIDIUM 30 [+]          
1 24949U 97051F   16263.93107515  .00000012  00000-0 -28872-5 0  9995
2 24949  86.3971  40.1727 0002297  88.0536 272.0923 14.34195445995441
IRIDIUM 31 [+]          
1 24950U 97051G   16263.92467761  .00000016  00000-0 -14181-5 0  9990
2 24950  86.3969  40.1750 0002002  93.4536 266.6889 14.34214106995749
IRIDIUM 19 [+]          
1 24965U 97056A   16264.46715939 -.00000035  00000-0 -19386-4 0  9997
2 24965  86.3923  71.4599 0001963  86.8154 273.3267 14.34213295993897
IRIDIUM 35 [+]          
1 24966U 97056B   16263.57287652 -.00000040  00000-0 -21454-4 0  9990
2 24966  86.3923  71.8301 0001965  86.8969 273.2452 14.34214361993451
IRIDIUM 36 [-]          
1 24967U 97056C   16263.89654447  .00000100  00000-0  27823-4 0  9997
2 24967  86.3937  70.9641 0002081  87.3862 272.7572 14.35552984994075
IRIDIUM 37 [+]          
1 24968U 97056D   16263.89634278 -.00000038  00000-0 -20778-4 0  9992
2 24968  86.3926  71.8733 0001933  86.6880 273.4537 14.34213953993575
IRIDIUM 34 [+]          
1 24969U 97056E   16263.91539744  .00000034  00000-0  52012-5 0  9999
2 24969  86.3927  71.8017 0002049  89.6117 270.5314 14.34215034993794
IRIDIUM 43 [+]          
1 25039U 97069A   16263.62403074  .00000200  00000-0  64390-4 0  9992
2 25039  86.3981 135.1267 0002066  78.0509 282.0919 14.34220450987532
IRIDIUM 41 [+]          
1 25040U 97069B   16263.89679569  .00000150  00000-0  46533-4 0  9990
2 25040  86.3973 134.9670 0002231  87.0151 273.1300 14.34221003987289
IRIDIUM 40 [+]          
1 25041U 97069C   16263.92223249  .00000203  00000-0  65561-4 0  9996
2 25041  86.3977 135.1833 0001927  53.3241 306.8132 14.34218474987594
IRIDIUM 39 [B]          
1 25042U 97069D   16263.60428380  .00000183  00000-0  45412-4 0  9995
2 25042  86.3932 134.6760 0020501 128.3447 231.9602 14.46085700987619
IRIDIUM 38 [-]          
1 25043U 97069E   16263.64659637  .00000140  00000-0  41483-4 0  9998
2 25043  86.3969 132.5827 0003382  87.5400 272.6184 14.35974539987638
IRIDIUM 42 [-]          
1 25077U 97077A   16263.75394056  .00000098  00000-0  27606-4 0  9990
2 25077  86.3977 135.0218 0002276  86.4605 273.6851 14.34501153983424
IRIDIUM 44 [-]          
1 25078U 97077B   16263.61634563  .00000175  00000-0  51313-4 0  9994
2 25078  86.3957 125.3248 0003787  82.8512 277.3117 14.38060200984742
IRIDIUM 45 [+]          
1 25104U 97082A   16264.47651161  .00000155  00000-0  48182-4 0  9996
2 25104  86.3968  39.9832 0003315  97.9069 262.2503 14.34212975981714
IRIDIUM 24 [-]          
1 25105U 97082B   16263.77059392  .00000150  00000-0  41536-4 0  9998
2 25105  86.3976 349.6567 0012855 146.8645 213.3362 14.39803291983683
IRIDIUM 47 [+]          
1 25106U 97082C   16263.80703778  .00000214  00000-0  69277-4 0  9990
2 25106  86.4002   8.3538 0002186 100.6937 259.4505 14.34223504981349
IRIDIUM 49 [+]          
1 25108U 97082E   16264.45675918  .00000236  00000-0  77186-4 0  9990
2 25108  86.4004   8.1778 0002239  99.0205 308.2203 14.34223948981716
IRIDIUM 52 [+]          
1 25169U 98010A   16263.56988509 -.00000033  00000-0 -18841-4 0  9993
2 25169  86.3929 103.5317 0002007  80.3747 279.7675 14.34217680972995
IRIDIUM 56 [+]          
1 25170U 98010B   16263.56346937 -.00000116  00000-0 -48430-4 0  9997
2 25170  86.3919 103.6356 0002179  87.6488 272.4957 14.34218728972977
IRIDIUM 54 [+]          
1 25171U 98010C   16263.94410800 -.00000032  00000-0 -18591-4 0  9993
2 25171  86.3929 103.3946 0001982  80.9136 279.2284 14.34217604973205
IRIDIUM 50 [+]          
1 25172U 98010D   16263.55721176 -.00000019  00000-0 -13705-4 0  9999
2 25172  86.3929 103.5142 0001908  80.9831 279.1581 14.34217043972975
IRIDIUM 53 [+]          
1 25173U 98010E   16263.57623927 -.00000020  00000-0 -14030-4 0  9991
2 25173  86.3929 103.5120 0001999  80.5956 279.5466 14.34217090972985
IRIDIUM 51 [S]          
1 25262U 98018A   16263.94070256 -.00000124  00000-0 -51384-4 0  9998
2 25262  86.3918  71.9727 0001854  90.4406 269.7002 14.34211692972195
IRIDIUM 61 [+]          
1 25263U 98018B   16263.90266529 -.00000041  00000-0 -21531-4 0  9994
2 25263  86.3925  71.8364 0001970  87.7978 272.3444 14.34213598967902
IRIDIUM 55 [+]          
1 25272U 98019A   16263.90562822  .00000133  00000-0  40262-4 0  9992
2 25272  86.3968  40.0019 0002104  96.8294 263.3141 14.34214171967100
IRIDIUM 57 [-]          
1 25273U 98019B   16263.53056667  .00000088  00000-0  24376-4 0  9994
2 25273  86.3973  40.4543 0002042  91.9552 268.1878 14.34234752967272
IRIDIUM 58 [+]          
1 25274U 98019C   16263.88660322  .00000124  00000-0  37158-4 0  9995
2 25274  86.3974  40.4951 0002106  98.1959 261.9476 14.34215208967111
IRIDIUM 59 [+]          
1 25275U 98019D   16263.89295880  .00000141  00000-0  43119-4 0  9993
2 25275  86.3969  40.3602 0001988  96.2133 263.9289 14.34214825967396
IRIDIUM 60 [+]          
1 25276U 98019E   16263.89929405  .00000119  00000-0  35351-4 0  9995
2 25276  86.3966  39.9876 0002114  95.8503 264.2934 14.34214919967114
IRIDIUM 62 [+]          
1 25285U 98021A   16263.65148661  .00000033  00000-0  48934-5 0  9996
2 25285  86.3994 337.0182 0002206  98.4768 261.6678 14.34225823966246
IRIDIUM 63 [-]          
1 25286U 98021B   16263.32772367  .00000112  00000-0  32794-4 0  9991
2 25286  86.4024 337.5450 0001947  93.9779 334.4336 14.34612341966210
